{
  "norad_id": 43622,
  "name": "BEIDOU-3 M13",
  "history": [
    {
      "epoch": "2026-03-28T10:55:59.749824Z",
      "apogee_km": 21553.51995777779,
      "perigee_km": 21502.601751048674,
      "latitude_deg": -5.358506299009422e-05,
      "longitude_deg": 75.42975611292464,
      "height_km": 21511.09590569559,
      "semi_major_axis_km": 27906.197854413233,
      "eccentricity": 0.00091231,
      "inclination_deg": 56.556,
      "raan_deg": 65.3217,
      "arg_perigee_deg": 312.6672,
      "mean_anomaly_deg": 47.2493,
      "mean_motion_rev_day": 1.86230907
    }
  ]
}